{
  "type": "FeatureCollection",
  "features": [
    {
      "type": "Feature",
      "properties": {
        "norad_id": 35744,
        "name": "IRIDIUM 33 DEB",
        "group": "iridium-33-debris",
        "lat": -71.67008509284527,
        "lon": 154.93275053534006,
        "alt_km": 660.9631792597447,
        "timestamp": "2025-12-16T10:53:45.856570+00:00",
        "meta_object_name": "IRIDIUM 33 DEB",
        "meta_object_id": "1997-051RX",
        "meta_epoch": "2025-12-15T09:15:59.013216",
        "meta_mean_motion": 14.71036318,
        "meta_eccentricity": 0.00204503,
        "meta_inclination": 86.3289,
        "meta_ra_of_asc_node": 324.2409,
        "meta_arg_of_pericenter": 182.37,
        "meta_mean_anomaly": 177.7423,
        "meta_ephemeris_type": 0,
        "meta_classification_type": "U",
        "meta_norad_cat_id": 35744,
        "meta_element_set_no": 999,
        "meta_rev_at_epoch": 87370,
        "meta_bstar": 0.00069819021,
        "meta_mean_motion_dot": 4.322e-05,
        "meta_mean_motion_ddot": 0,
        "tle_line1": "1 35744U 97051RX  25349.38609969  .00004322  00000+0  69819-3 0  9994",
        "tle_line2": "2 35744  86.3289 324.2409 0020450 182.3700 177.7423 14.71036318873707"
      },
      "geometry": {
        "type": "Point",
        "coordinates": [
          154.93275053534006,
          -71.67008509284527
        ]
      }
    },
    {
      "type": "Feature",
      "properties": {
        "norad_id": 35797,
        "name": "IRIDIUM 33 DEB",
        "group": "iridium-33-debris",
        "lat": 42.359355274633415,
        "lon": 144.91765145902994,
        "alt_km": 607.4093219543802,
        "timestamp": "2025-12-16T10:53:45.856585+00:00",
        "meta_object_name": "IRIDIUM 33 DEB",
        "meta_object_id": "1997-051SF",
        "meta_epoch": "2025-12-12T05:51:50.415264",
        "meta_mean_motion": 14.82743783,
        "meta_eccentricity": 0.00133704,
        "meta_inclination": 86.3362,
        "meta_ra_of_asc_node": 330.2007,
        "meta_arg_of_pericenter": 149.5686,
        "meta_mean_anomaly": 210.6315,
        "meta_ephemeris_type": 0,
        "meta_classification_type": "U",
        "meta_norad_cat_id": 35797,
        "meta_element_set_no": 999,
        "meta_rev_at_epoch": 87333,
        "meta_bstar": 0.0026694194,
        "meta_mean_motion_dot": 0.00021655,
        "meta_mean_motion_ddot": 0,
        "tle_line1": "1 35797U 97051SF  25346.24433351  .00021655  00000+0  26694-2 0  9995",
        "tle_line2": "2 35797  86.3362 330.2007 0013370 149.5686 210.6315 14.82743783873338"
      },
      "geometry": {
        "type": "Point",
        "coordinates": [
          144.91765145902994,
          42.359355274633415
        ]
      }
    },
    {
      "type": "Feature",
      "properties": {
        "norad_id": 35806,
        "name": "IRIDIUM 33 DEB",
        "group": "iridium-33-debris",
        "lat": 76.114865792135,
        "lon": -175.99638023189692,
        "alt_km": 685.8883606657628,
        "timestamp": "2025-12-16T10:53:45.856596+00:00",
        "meta_object_name": "IRIDIUM 33 DEB",
        "meta_object_id": "1997-051SQ",
        "meta_epoch": "2025-12-10T20:56:47.284800",
        "meta_mean_motion": 14.5731398,
        "meta_eccentricity": 0.0016091,
        "meta_inclination": 86.344,
        "meta_ra_of_asc_node": 21.4504,
        "meta_arg_of_pericenter": 81.1516,
        "meta_mean_anomaly": 279.1514,
        "meta_ephemeris_type": 0,
        "meta_classification_type": "U",
        "meta_norad_cat_id": 35806,
        "meta_element_set_no": 999,
        "meta_rev_at_epoch": 86297,
        "meta_bstar": 0.0016785,
        "meta_mean_motion_dot": 7.632e-05,
        "meta_mean_motion_ddot": 0,
        "tle_line1": "1 35806U 97051SQ  25344.87276950  .00007632  00000+0  16785-2 0  9992",
        "tle_line2": "2 35806  86.3440  21.4504 0016091  81.1516 279.1514 14.57313980862976"
      },
      "geometry": {
        "type": "Point",
        "coordinates": [
          -175.99638023189692,
          76.114865792135
        ]
      }
    },
    {
      "type": "Feature",
      "properties": {
        "norad_id": 35809,
        "name": "IRIDIUM 33 DEB",
        "group": "iridium-33-debris",
        "lat": -6.641339192254734,
        "lon": -26.76945184940642,
        "alt_km": 650.0828076050921,
        "timestamp": "2025-12-16T10:53:45.856607+00:00",
        "meta_object_name": "IRIDIUM 33 DEB",
        "meta_object_id": "1997-051ST",
        "meta_epoch": "2025-12-10T16:35:56.421600",
        "meta_mean_motion": 14.75629145,
        "meta_eccentricity": 0.00097103,
        "meta_inclination": 86.329,
        "meta_ra_of_asc_node": 336.2813,
        "meta_arg_of_pericenter": 251.0565,
        "meta_mean_anomaly": 108.9602,
        "meta_ephemeris_type": 0,
        "meta_classification_type": "U",
        "meta_norad_cat_id": 35809,
        "meta_element_set_no": 999,
        "meta_rev_at_epoch": 86777,
        "meta_bstar": 0.0026432017,
        "meta_mean_motion_dot": 0.00018102,
        "meta_mean_motion_ddot": 0,
        "tle_line1": "1 35809U 97051ST  25344.69162525  .00018102  00000+0  26432-2 0  9991",
        "tle_line2": "2 35809  86.3290 336.2813 0009710 251.0565 108.9602 14.75629145867777"
      },
      "geometry": {
        "type": "Point",
        "coordinates": [
          -26.76945184940642,
          -6.641339192254734
        ]
      }
    },
    {
      "type": "Feature",
      "properties": {
        "norad_id": 35846,
        "name": "IRIDIUM 33 DEB",
        "group": "iridium-33-debris",
        "lat": 58.91346462116582,
        "lon": 63.2918432335562,
        "alt_km": 744.4156949955504,
        "timestamp": "2025-12-16T10:53:45.856618+00:00",
        "meta_object_name": "IRIDIUM 33 DEB",
        "meta_object_id": "1997-051SW",
        "meta_epoch": "2025-12-13T22:42:58.027680",
        "meta_mean_motion": 14.43166074,
        "meta_eccentricity": 0.00189778,
        "meta_inclination": 86.3748,
        "meta_ra_of_asc_node": 58.3258,
        "meta_arg_of_pericenter": 166.0798,
        "meta_mean_anomaly": 194.093,
        "meta_ephemeris_type": 0,
        "meta_classification_type": "U",
        "meta_norad_cat_id": 35846,
        "meta_element_set_no": 999,
        "meta_rev_at_epoch": 71346,
        "meta_bstar": 0.00070076496,
        "meta_mean_motion_dot": 2.378e-05,
        "meta_mean_motion_ddot": 0,
        "tle_line1": "1 35846U 97051SW  25347.94650495  .00002378  00000+0  70076-3 0  9993",
        "tle_line2": "2 35846  86.3748  58.3258 0018977 166.0798 194.0930 14.43166074713467"
      },
      "geometry": {
        "type": "Point",
        "coordinates": [
          63.2918432335562,
          58.91346462116582
        ]
      }
    },
    {
      "type": "Feature",
      "properties": {
        "norad_id": 35848,
        "name": "IRIDIUM 33 DEB",
        "group": "iridium-33-debris",
        "lat": -15.248197975380743,
        "lon": 13.467614883920264,
        "alt_km": 643.9094366071795,
        "timestamp": "2025-12-16T10:53:45.856640+00:00",
        "meta_object_name": "IRIDIUM 33 DEB",
        "meta_object_id": "1997-051SY",
        "meta_epoch": "2025-12-14T19:59:10.774176",
        "meta_mean_motion": 14.78689372,
        "meta_eccentricity": 0.00081927,
        "meta_inclination": 86.3904,
        "meta_ra_of_asc_node": 15.1825,
        "meta_arg_of_pericenter": 180.6002,
        "meta_mean_anomaly": 179.521,
        "meta_ephemeris_type": 0,
        "meta_classification_type": "U",
        "meta_norad_cat_id": 35848,
        "meta_element_set_no": 999,
        "meta_rev_at_epoch": 66721,
        "meta_bstar": 0.0010179652,
        "meta_mean_motion_dot": 7.493e-05,
        "meta_mean_motion_ddot": 0,
        "tle_line1": "1 35848U 97051SY  25348.83276359  .00007493  00000+0  10180-2 0  9999",
        "tle_line2": "2 35848  86.3904  15.1825 0008192 180.6002 179.5210 14.78689372667211"
      },
      "geometry": {
        "type": "Point",
        "coordinates": [
          13.467614883920264,
          -15.248197975380743
        ]
      }
    },
    {
      "type": "Feature",
      "properties": {
        "norad_id": 35850,
        "name": "IRIDIUM 33 DEB",
        "group": "iridium-33-debris",
        "lat": -47.35700349616686,
        "lon": -21.4181954593166,
        "alt_km": 644.9688178547767,
        "timestamp": "2025-12-16T10:53:45.856653+00:00",
        "meta_object_name": "IRIDIUM 33 DEB",
        "meta_object_id": "1997-051TA",
        "meta_epoch": "2025-12-15T17:14:52.406304",
        "meta_mean_motion": 14.78892383,
        "meta_eccentricity": 0.00096156,
        "meta_inclination": 86.3495,
        "meta_ra_of_asc_node": 342.8914,
        "meta_arg_of_pericenter": 173.8834,
        "meta_mean_anomaly": 186.2505,
        "meta_ephemeris_type": 0,
        "meta_classification_type": "U",
        "meta_norad_cat_id": 35850,
        "meta_element_set_no": 999,
        "meta_rev_at_epoch": 71401,
        "meta_bstar": 0.0010045188,
        "meta_mean_motion_dot": 7.431e-05,
        "meta_mean_motion_ddot": 0,
        "tle_line1": "1 35850U 97051TA  25349.71866211  .00007431  00000+0  10045-2 0  9994",
        "tle_line2": "2 35850  86.3495 342.8914 0009615 173.8834 186.2505 14.78892383714017"
      },
      "geometry": {
        "type": "Point",
        "coordinates": [
          -21.4181954593166,
          -47.35700349616686
        ]
      }
    }
  ]
}